{"fetched_at":"2026-07-18T06:28:12.370Z","source":"https://celestrak.org/NORAD/elements/gp.php?NAME=ICEYE&FORMAT=JSON","constellation":"iceye","records":[{"OBJECT_NAME":"ICEYE-X72","OBJECT_ID":"2026-067CS","EPOCH":"2026-07-17T22:00:01.999584","CLASSIFICATION_TYPE":"U","MEAN_MOTION":14.96622246,"ECCENTRICITY":0.00007194,"INCLINATION":97.765,"RA_OF_ASC_NODE":156.8675,"ARG_OF_PERICENTER":144.8697,"MEAN_ANOMALY":243.4235,"EPHEMERIS_TYPE":0,"NORAD_CAT_ID":68504,"ELEMENT_SET_NO":999,"REV_AT_EPOCH":575,"BSTAR":0.00096223025,"MEAN_MOTION_DOT":0.00010919,"MEAN_MOTION_DDOT":0},{"OBJECT_NAME":"ICEYE-X78","OBJECT_ID":"2026-100R","EPOCH":"2026-07-17T15:52:46.839936","CLASSIFICATION_TYPE":"U","MEAN_MOTION":14.91814383,"ECCENTRICITY":0.00034253,"INCLINATION":97.7329,"RA_OF_ASC_NODE":95.5477,"ARG_OF_PERICENTER":49.8135,"MEAN_ANOMALY":310.3383,"EPHEMERIS_TYPE":0,"NORAD_CAT_ID":68995,"ELEMENT_SET_NO":999,"REV_AT_EPOCH":1124,"BSTAR":0.000058979739,"MEAN_MOTION_DOT":0.0000054,"MEAN_MOTION_DDOT":0},{"OBJECT_NAME":"ICEYE-X82","OBJECT_ID":"2026-100S","EPOCH":"2026-07-17T16:25:18.269472","CLASSIFICATION_TYPE":"U","MEAN_MOTION":14.9143061,"ECCENTRICITY":0.00056378,"INCLINATION":97.7324,"RA_OF_ASC_NODE":95.5125,"ARG_OF_PERICENTER":57.8666,"MEAN_ANOMALY":302.3099,"EPHEMERIS_TYPE":0,"NORAD_CAT_ID":68996,"ELEMENT_SET_NO":999,"REV_AT_EPOCH":1124,"BSTAR":0.00011108473,"MEAN_MOTION_DOT":0.00001055,"MEAN_MOTION_DDOT":0}]}
