ICEYE-X72               
1 68504U 26067CS  26198.91668981  .00010919  00000+0  96223-3 0  9992
2 68504  97.7650 156.8675 0000719 144.8697 243.4235 14.96622246  5755
ICEYE-X78               
1 68995U 26100R   26198.66165324  .00000540  00000+0  58980-4 0  9997
2 68995  97.7329  95.5477 0003425  49.8135 310.3383 14.91814383 11248
ICEYE-X82               
1 68996U 26100S   26198.68423923  .00001055  00000+0  11108-3 0  9994
2 68996  97.7324  95.5125 0005637  57.8666 302.3099 14.91430610 11241
